{
  "type": "FeatureCollection",
  "features": [
    {
      "type": "Feature",
      "properties": {
        "norad_id": 2807,
        "name": "OPS 7218 (TRANSIT 16)",
        "group": "nnss",
        "lat": -82.83234676063368,
        "lon": -8.65787948721795,
        "alt_km": 1093.1779253619434,
        "timestamp": "2025-12-14T22:38:41.026491+00:00",
        "meta_object_name": "OPS 7218 (TRANSIT 16)",
        "meta_object_id": "1967-048A",
        "meta_epoch": "2025-12-14T02:02:05.924256",
        "meta_mean_motion": 13.50722412,
        "meta_eccentricity": 0.00220105,
        "meta_inclination": 89.6732,
        "meta_ra_of_asc_node": 353.9716,
        "meta_arg_of_pericenter": 110.4937,
        "meta_mean_anomaly": 313.4116,
        "meta_ephemeris_type": 0,
        "meta_classification_type": "U",
        "meta_norad_cat_id": 2807,
        "meta_element_set_no": 999,
        "meta_rev_at_epoch": 88294,
        "meta_bstar": 0.00017682233,
        "meta_mean_motion_dot": 1.24e-06,
        "meta_mean_motion_ddot": 0,
        "tle_line1": "1 02807U 67048A   25348.08479079  .00000124  00000+0  17682-3 0  9991",
        "tle_line2": "2 02807  89.6732 353.9716 0022010 110.4937 313.4116 13.50722412882945"
      },
      "geometry": {
        "type": "Point",
        "coordinates": [
          -8.65787948721795,
          -82.83234676063368
        ]
      }
    },
    {
      "type": "Feature",
      "properties": {
        "norad_id": 2965,
        "name": "OPS 4947 (TRANSIT 17)",
        "group": "nnss",
        "lat": 3.517581535350682,
        "lon": 24.313873885308983,
        "alt_km": 1086.6196060393959,
        "timestamp": "2025-12-14T22:38:41.026514+00:00",
        "meta_object_name": "OPS 4947 (TRANSIT 17)",
        "meta_object_id": "1967-092A",
        "meta_epoch": "2025-12-14T08:29:16.406304",
        "meta_mean_motion": 13.53453838,
        "meta_eccentricity": 0.00462826,
        "meta_inclination": 89.2495,
        "meta_ra_of_asc_node": 24.3126,
        "meta_arg_of_pericenter": 229.6655,
        "meta_mean_anomaly": 141.2145,
        "meta_ephemeris_type": 0,
        "meta_classification_type": "U",
        "meta_norad_cat_id": 2965,
        "meta_element_set_no": 999,
        "meta_rev_at_epoch": 87119,
        "meta_bstar": 0.0002223473,
        "meta_mean_motion_dot": 1.61e-06,
        "meta_mean_motion_ddot": 0,
        "tle_line1": "1 02965U 67092A   25348.35366211  .00000161  00000+0  22235-3 0  9999",
        "tle_line2": "2 02965  89.2495  24.3126 0046282 229.6655 141.2145 13.53453838871193"
      },
      "geometry": {
        "type": "Point",
        "coordinates": [
          24.313873885308983,
          3.517581535350682
        ]
      }
    },
    {
      "type": "Feature",
      "properties": {
        "norad_id": 3133,
        "name": "OPS 7034 (TRANSIT 18)",
        "group": "nnss",
        "lat": 42.80016470938245,
        "lon": 93.67093426419677,
        "alt_km": 1013.2498153443594,
        "timestamp": "2025-12-14T22:38:41.026528+00:00",
        "meta_object_name": "OPS 7034 (TRANSIT 18)",
        "meta_object_id": "1968-012A",
        "meta_epoch": "2025-12-14T08:18:39.335040",
        "meta_mean_motion": 13.51566071,
        "meta_eccentricity": 0.00740091,
        "meta_inclination": 90.028,
        "meta_ra_of_asc_node": 273.6433,
        "meta_arg_of_pericenter": 164.4805,
        "meta_mean_anomaly": 308.774,
        "meta_ephemeris_type": 0,
        "meta_classification_type": "U",
        "meta_norad_cat_id": 3133,
        "meta_element_set_no": 999,
        "meta_rev_at_epoch": 56940,
        "meta_bstar": 0.00018393081,
        "meta_mean_motion_dot": 1.32e-06,
        "meta_mean_motion_ddot": 0,
        "tle_line1": "1 03133U 68012A   25348.34628860  .00000132  00000+0  18393-3 0  9998",
        "tle_line2": "2 03133  90.0280 273.6433 0074009 164.4805 308.7740 13.51566071569405"
      },
      "geometry": {
        "type": "Point",
        "coordinates": [
          93.67093426419677,
          42.80016470938245
        ]
      }
    },
    {
      "type": "Feature",
      "properties": {
        "norad_id": 4507,
        "name": "NNSS 19 (TRANSIT 19)",
        "group": "nnss",
        "lat": 73.00698913850923,
        "lon": 54.553097247328445,
        "alt_km": 1187.4674523965869,
        "timestamp": "2025-12-14T22:38:41.026540+00:00",
        "meta_object_name": "NNSS 19 (TRANSIT 19)",
        "meta_object_id": "1970-067A",
        "meta_epoch": "2025-12-14T04:20:13.742304",
        "meta_mean_motion": 13.51315468,
        "meta_eccentricity": 0.01704674,
        "meta_inclination": 90.0054,
        "meta_ra_of_asc_node": 234.535,
        "meta_arg_of_pericenter": 289.1669,
        "meta_mean_anomaly": 69.1099,
        "meta_ephemeris_type": 0,
        "meta_classification_type": "U",
        "meta_norad_cat_id": 4507,
        "meta_element_set_no": 999,
        "meta_rev_at_epoch": 72241,
        "meta_bstar": 0.00018434892,
        "meta_mean_motion_dot": 1.38e-06,
        "meta_mean_motion_ddot": 0,
        "tle_line1": "1 04507U 70067A   25348.18071461  .00000138  00000+0  18435-3 0  9991",
        "tle_line2": "2 04507  90.0054 234.5350 0170467 289.1669  69.1099 13.51315468722411"
      },
      "geometry": {
        "type": "Point",
        "coordinates": [
          54.553097247328445,
          73.00698913850923
        ]
      }
    },
    {
      "type": "Feature",
      "properties": {
        "norad_id": 6909,
        "name": "NNSS 20 (TRANSIT 20)",
        "group": "nnss",
        "lat": -22.88503484578975,
        "lon": -105.03949644048474,
        "alt_km": 1007.2184200319507,
        "timestamp": "2025-12-14T22:38:41.026550+00:00",
        "meta_object_name": "NNSS 20 (TRANSIT 20)",
        "meta_object_id": "1973-081A",
        "meta_epoch": "2025-12-14T06:59:46.343040",
        "meta_mean_motion": 13.7143501,
        "meta_eccentricity": 0.01566135,
        "meta_inclination": 89.8563,
        "meta_ra_of_asc_node": 255.031,
        "meta_arg_of_pericenter": 73.7259,
        "meta_mean_anomaly": 288.1067,
        "meta_ephemeris_type": 0,
        "meta_classification_type": "U",
        "meta_norad_cat_id": 6909,
        "meta_element_set_no": 999,
        "meta_rev_at_epoch": 80382,
        "meta_bstar": 0.00028952316,
        "meta_mean_motion_dot": 2.96e-06,
        "meta_mean_motion_ddot": 0,
        "tle_line1": "1 06909U 73081A   25348.29150860  .00000296  00000+0  28952-3 0  9991",
        "tle_line2": "2 06909  89.8563 255.0310 0156613  73.7259 288.1067 13.71435010803824"
      },
      "geometry": {
        "type": "Point",
        "coordinates": [
          -105.03949644048474,
          -22.88503484578975
        ]
      }
    },
    {
      "type": "Feature",
      "properties": {
        "norad_id": 10457,
        "name": "TRANSAT",
        "group": "nnss",
        "lat": 87.10180935426993,
        "lon": -108.45336841986241,
        "alt_km": 1068.7139723409864,
        "timestamp": "2025-12-14T22:38:41.026561+00:00",
        "meta_object_name": "TRANSAT",
        "meta_object_id": "1977-106A",
        "meta_epoch": "2025-12-14T08:16:34.588992",
        "meta_mean_motion": 13.48943908,
        "meta_eccentricity": 0.00255494,
        "meta_inclination": 89.6481,
        "meta_ra_of_asc_node": 78.5402,
        "meta_arg_of_pericenter": 184.8329,
        "meta_mean_anomaly": 242.7224,
        "meta_ephemeris_type": 0,
        "meta_classification_type": "U",
        "meta_norad_cat_id": 10457,
        "meta_element_set_no": 999,
        "meta_rev_at_epoch": 36765,
        "meta_bstar": 0.00013181253,
        "meta_mean_motion_dot": 9.3e-07,
        "meta_mean_motion_ddot": 0,
        "tle_line1": "1 10457U 77106A   25348.34484478  .00000093  00000+0  13181-3 0  9990",
        "tle_line2": "2 10457  89.6481  78.5402 0025549 184.8329 242.7224 13.48943908367650"
      },
      "geometry": {
        "type": "Point",
        "coordinates": [
          -108.45336841986241,
          87.10180935426993
        ]
      }
    },
    {
      "type": "Feature",
      "properties": {
        "norad_id": 12458,
        "name": "NOVA 1",
        "group": "nnss",
        "lat": 28.40356763401877,
        "lon": -88.72588496966546,
        "alt_km": 1163.6968188354076,
        "timestamp": "2025-12-14T22:38:41.026571+00:00",
        "meta_object_name": "NOVA 1",
        "meta_object_id": "1981-044A",
        "meta_epoch": "2025-12-14T07:38:13.369056",
        "meta_mean_motion": 13.23278689,
        "meta_eccentricity": 0.00159066,
        "meta_inclination": 89.8525,
        "meta_ra_of_asc_node": 91.3628,
        "meta_arg_of_pericenter": 100.1142,
        "meta_mean_anomaly": 314.0642,
        "meta_ephemeris_type": 0,
        "meta_classification_type": "U",
        "meta_norad_cat_id": 12458,
        "meta_element_set_no": 999,
        "meta_rev_at_epoch": 15207,
        "meta_bstar": 0.00015294781,
        "meta_mean_motion_dot": 7.4e-07,
        "meta_mean_motion_ddot": 0,
        "tle_line1": "1 12458U 81044A   25348.31821029  .00000074  00000+0  15295-3 0  9990",
        "tle_line2": "2 12458  89.8525  91.3628 0015906 100.1142 314.0642 13.23278689152072"
      },
      "geometry": {
        "type": "Point",
        "coordinates": [
          -88.72588496966546,
          28.40356763401877
        ]
      }
    }
  ]
}